[{"OBJECT_NAME":"OBJECT AD","OBJECT_ID":"2023-085AD","EPOCH":"2026-03-09T21:41:29.115744","MEAN_MOTION":15.31779154,"ECCENTRICITY":0.00101154,"INCLINATION":97.4841,"RA_OF_ASC_NODE":180.2223,"ARG_OF_PERICENTER":77.5993,"MEAN_ANOMALY":282.638,"EPHEMERIS_TYPE":0,"CLASSIFICATION_TYPE":"U","NORAD_CAT_ID":57031,"ELEMENT_SET_NO":999,"REV_AT_EPOCH":15156,"BSTAR":0.00068352515,"MEAN_MOTION_DOT":0.00020961,"MEAN_MOTION_DDOT":0},{"OBJECT_NAME":"STARLINK-33586","OBJECT_ID":"2025-035X","EPOCH":"2026-03-09T05:54:17.187264","MEAN_MOTION":15.27583726,"ECCENTRICITY":9.301e-5,"INCLINATION":42.9983,"RA_OF_ASC_NODE":142.5001,"ARG_OF_PERICENTER":247.5627,"MEAN_ANOMALY":112.5126,"EPHEMERIS_TYPE":0,"CLASSIFICATION_TYPE":"U","NORAD_CAT_ID":63073,"ELEMENT_SET_NO":999,"REV_AT_EPOCH":5974,"BSTAR":0.00096194908,"MEAN_MOTION_DOT":0.00026306,"MEAN_MOTION_DDOT":0}]
